OBJECT_NAME,OBJECT_ID,EPOCH,MEAN_MOTION,ECCENTRICITY,INCLINATION,RA_OF_ASC_NODE,ARG_OF_PERICENTER,MEAN_ANOMALY,EPHEMERIS_TYPE,CLASSIFICATION_TYPE,NORAD_CAT_ID,ELEMENT_SET_NO,REV_AT_EPOCH,BSTAR,MEAN_MOTION_DOT,MEAN_MOTION_DDOT
STARLINK-2491,2021-027BJ,2026-07-16T12:15:23.300640,15.31705608,.00011229,53.1585,286.3265,62.6849,297.4266,0,U,48148,999,29223,.79278401E-4,.2096E-4,0
STARLINK-2492,2021-027BK,2026-07-16T11:03:24.593184,15.31715482,.00013135,53.1598,273.7922,105.3268,254.7879,0,U,48149,999,29240,-.17233941E-3,-.5712E-4,0
STARLINK-2493,2021-027BL,2026-07-16T12:17:11.298912,15.31708558,.00009263,53.1611,273.3655,70.5568,289.5533,0,U,48150,999,29242,.40246733E-4,.884E-5,0
STARLINK-2503,2021-027BM,2026-07-16T10:36:58.348800,15.31709915,.00010976,53.1602,273.5941,68.3102,291.8016,0,U,48151,999,29241,.51806494E-4,.1243E-4,0
STARLINK-2567,2021-036A,2026-07-16T08:26:27.871872,15.31694189,.0001217,53.1592,172.2790,79.9717,280.1421,0,U,48276,999,28845,.9264928E-5,-.78E-6,0
STARLINK-2569,2021-036B,2026-07-16T05:54:33.742368,15.34280814,.00022287,53.1233,134.4180,60.1480,299.9743,0,U,48277,999,28897,.81831378E-3,.27269E-3,0
STARLINK-2543,2021-036C,2026-07-16T06:02:45.591648,15.31706188,.00014581,53.1604,146.2049,71.3859,288.7300,0,U,48278,999,28881,.58285346E-4,.1444E-4,0
STARLINK-2565,2021-036E,2026-07-16T11:12:30.343968,15.31704148,.00011969,53.1592,222.0006,95.5680,264.5458,0,U,48280,999,28776,.9324264E-5,-.76E-6,0
STARLINK-2558,2021-036G,2026-07-16T11:23:19.951008,15.31711540,.00010767,53.1589,196.2121,87.4722,272.6403,0,U,48282,999,28814,.11380403E-3,.3169E-4,0
STARLINK-2516,2021-036H,2026-07-16T14:17:48.874848,15.31693158,.00012829,53.1585,195.5865,85.4080,274.7068,0,U,48283,999,28816,-.47126914E-4,-.1827E-4,0
STARLINK-2564,2021-036J,2026-07-16T09:09:10.540800,15.31703048,.00013046,53.1579,197.0935,99.7629,260.3520,0,U,48284,999,28811,.3897913E-5,-.244E-5,0
STARLINK-2547,2021-036L,2026-07-16T11:03:11.526912,15.31694420,.00013376,53.1584,196.2920,92.5078,267.6077,0,U,48286,999,28813,-.29855E-4,-.1291E-4,0
STARLINK-2566,2021-036M,2026-07-16T05:41:58.843104,15.31709443,.0001201,53.1589,199.6918,93.8557,266.2582,0,U,48287,999,28806,.50513768E-4,.1203E-4,0
STARLINK-2545,2021-036P,2026-07-16T11:22:52.431744,15.31713941,.00013364,53.1594,196.4622,110.2506,249.8639,0,U,48289,999,28813,.48100929E-4,.1128E-4,0
STARLINK-2555,2021-036R,2026-07-16T06:55:47.742528,15.31711672,.00012695,53.1607,199.4593,88.5134,271.6013,0,U,48291,999,28807,.12721391E-4,.3E-6,0
STARLINK-2542,2021-036S,2026-07-16T06:54:49.153824,15.31711003,.00011556,53.1592,196.8972,80.8446,279.2686,0,U,48292,999,28811,.31225522E-4,.604E-5,0
STARLINK-2550,2021-036T,2026-07-16T07:14:59.291232,15.31705463,.00013916,53.1563,196.9881,92.2178,267.8982,0,U,48293,999,28811,.32869742E-4,.655E-5,0
STARLINK-2533,2021-036U,2026-07-16T10:09:28.249632,15.31700236,.00011274,53.1567,196.3755,104.5949,255.5177,0,U,48294,999,28813,.32113453E-4,.632E-5,0
STARLINK-2535,2021-036V,2026-07-16T08:55:41.359872,15.31705567,.00013924,53.1583,196.7799,77.0093,283.1064,0,U,48295,999,28812,.21437941E-4,.3E-5,0
STARLINK-2559,2021-036Y,2026-07-16T09:24:26.762688,15.37942721,.00064467,53.1562,194.9038,25.3472,334.7847,0,U,48298,999,28815,.66083474E-3,.24724E-3,0
STARLINK-2557,2021-036Z,2026-07-16T06:34:41.603232,15.31712889,.00012237,53.1593,197.0505,88.6045,271.5096,0,U,48299,999,28811,.23109847E-4,.352E-5,0
STARLINK-2538,2021-036AA,2026-07-16T10:00:27.465984,15.31703007,.00011532,53.1581,209.2096,90.1119,270.0014,0,U,48300,999,28795,.16697266E-4,.153E-5,0
STARLINK-2537,2021-036AB,2026-07-16T07:40:06.056256,15.31699619,.00013092,53.1588,212.6767,92.0971,268.0181,0,U,48301,999,28788,.23950011E-4,.378E-5,0
STARLINK-2530,2021-036AD,2026-07-16T07:12:43.481664,15.31706778,.00009546,53.1590,210.0382,86.3358,273.7753,0,U,48303,999,28792,.7624892E-5,-.128E-5,0
STARLINK-2524,2021-036AE,2026-07-16T10:17:24.257472,15.31715376,.0000892,53.1591,219.8960,78.5821,281.5281,0,U,48304,999,28778,-.87795553E-4,-.309E-4,0
STARLINK-2519,2021-036AF,2026-07-16T11:31:20.633952,15.31718550,.00011922,53.1591,220.2438,81.0458,279.0679,0,U,48305,999,28778,.26605192E-4,.461E-5,0
STARLINK-2523,2021-036AG,2026-07-16T08:50:11.211648,15.31705475,.00012086,53.1591,220.2992,90.0035,270.1105,0,U,48306,999,28777,.31034589E-4,.598E-5,0
STARLINK-2517,2021-036AK,2026-07-16T07:46:22.005984,15.31711117,.00012068,53.1607,210.3724,91.5197,268.5942,0,U,48309,999,28792,.26293906E-4,.451E-5,0
STARLINK-2536,2021-036AL,2026-07-16T10:35:36.501216,15.31705855,.00012465,53.1583,212.3570,83.7980,276.3164,0,U,48310,999,28790,.16900447E-4,.159E-5,0
STARLINK-2534,2021-036AM,2026-07-16T08:40:01.004736,15.31703472,.00012298,53.1582,209.9698,76.6060,283.5078,0,U,48311,999,28793,-.29615676E-4,-.1284E-4,0
