STARLINK-2491           
1 48148U 21027BJ  26197.51068635  .00002096  00000+0  79278-4 0  9999
2 48148  53.1585 286.3265 0001122  62.6849 297.4266 15.31705608292237
STARLINK-2492           
1 48149U 21027BK  26197.46070131 -.00005712  00000+0 -17234-3 0  9991
2 48149  53.1598 273.7922 0001313 105.3268 254.7879 15.31715482292400
STARLINK-2493           
1 48150U 21027BL  26197.51193633  .00000884  00000+0  40247-4 0  9996
2 48150  53.1611 273.3655 0000926  70.5568 289.5533 15.31708558292423
STARLINK-2503           
1 48151U 21027BM  26197.44234200  .00001243  00000+0  51806-4 0  9998
2 48151  53.1602 273.5941 0001097  68.3102 291.8016 15.31709915292412
STARLINK-2567           
1 48276U 21036A   26197.35171148 -.00000078  00000+0  92649-5 0  9994
2 48276  53.1592 172.2790 0001217  79.9717 280.1421 15.31694189288455
STARLINK-2569           
1 48277U 21036B   26197.24622387  .00027269  00000+0  81831-3 0  9998
2 48277  53.1233 134.4180 0002228  60.1480 299.9743 15.34280814288974
STARLINK-2543           
1 48278U 21036C   26197.25191657  .00001444  00000+0  58285-4 0  9996
2 48278  53.1604 146.2049 0001458  71.3859 288.7300 15.31706188288812
STARLINK-2565           
1 48280U 21036E   26197.46701787 -.00000076  00000+0  93243-5 0  9998
2 48280  53.1592 222.0006 0001196  95.5680 264.5458 15.31704148287769
STARLINK-2558           
1 48282U 21036G   26197.47453647  .00003169  00000+0  11380-3 0  9995
2 48282  53.1589 196.2121 0001076  87.4722 272.6403 15.31711540288148
STARLINK-2516           
1 48283U 21036H   26197.59570457 -.00001827  00000+0 -47127-4 0  9998
2 48283  53.1585 195.5865 0001282  85.4080 274.7068 15.31693158288162
STARLINK-2564           
1 48284U 21036J   26197.38137200 -.00000244  00000+0  38979-5 0  9998
2 48284  53.1579 197.0935 0001304  99.7629 260.3520 15.31703048288112
STARLINK-2547           
1 48286U 21036L   26197.46055008 -.00001291  00000+0 -29855-4 0  9990
2 48286  53.1584 196.2920 0001337  92.5078 267.6077 15.31694420288132
STARLINK-2566           
1 48287U 21036M   26197.23748661  .00001203  00000+0  50514-4 0  9997
2 48287  53.1589 199.6918 0001201  93.8557 266.2582 15.31709443288068
STARLINK-2545           
1 48289U 21036P   26197.47421796  .00001128  00000+0  48101-4 0  9997
2 48289  53.1594 196.4622 0001336 110.2506 249.8639 15.31713941288136
STARLINK-2555           
1 48291U 21036R   26197.28874702  .00000030  00000+0  12721-4 0  9998
2 48291  53.1607 199.4593 0001269  88.5134 271.6013 15.31711672288074
STARLINK-2542           
1 48292U 21036S   26197.28806891  .00000604  00000+0  31226-4 0  9991
2 48292  53.1592 196.8972 0001155  80.8446 279.2686 15.31711003288118
STARLINK-2550           
1 48293U 21036T   26197.30207513  .00000655  00000+0  32870-4 0  9993
2 48293  53.1563 196.9881 0001391  92.2178 267.8982 15.31705463288113
STARLINK-2533           
1 48294U 21036U   26197.42324363  .00000632  00000+0  32113-4 0  9995
2 48294  53.1567 196.3755 0001127 104.5949 255.5177 15.31700236288137
STARLINK-2535           
1 48295U 21036V   26197.37200648  .00000300  00000+0  21438-4 0  9999
2 48295  53.1583 196.7799 0001392  77.0093 283.1064 15.31705567288129
STARLINK-2559           
1 48298U 21036Y   26197.39197642  .00024724  00000+0  66083-3 0  9993
2 48298  53.1562 194.9038 0006446  25.3472 334.7847 15.37942721288153
STARLINK-2557           
1 48299U 21036Z   26197.27409263  .00000352  00000+0  23110-4 0  9992
2 48299  53.1593 197.0505 0001223  88.6045 271.5096 15.31712889288111
STARLINK-2538           
1 48300U 21036AA  26197.41698456  .00000153  00000+0  16697-4 0  9996
2 48300  53.1581 209.2096 0001153  90.1119 270.0014 15.31703007287951
STARLINK-2537           
1 48301U 21036AB  26197.31951454  .00000378  00000+0  23950-4 0  9995
2 48301  53.1588 212.6767 0001309  92.0971 268.0181 15.31699619287889
STARLINK-2530           
1 48303U 21036AD  26197.30050326 -.00000128  00000+0  76249-5 0  9998
2 48303  53.1590 210.0382 0000954  86.3358 273.7753 15.31706778287927
STARLINK-2524           
1 48304U 21036AE  26197.42875298 -.00003090  00000+0 -87796-4 0  9995
2 48304  53.1591 219.8960 0000892  78.5821 281.5281 15.31715376287788
STARLINK-2519           
1 48305U 21036AF  26197.48009993  .00000461  00000+0  26605-4 0  9992
2 48305  53.1591 220.2438 0001192  81.0458 279.0679 15.31718550287784
STARLINK-2523           
1 48306U 21036AG  26197.36818532  .00000598  00000+0  31035-4 0  9991
2 48306  53.1591 220.2992 0001208  90.0035 270.1105 15.31705475287776
STARLINK-2517           
1 48309U 21036AK  26197.32386581  .00000451  00000+0  26294-4 0  9993
2 48309  53.1607 210.3724 0001206  91.5197 268.5942 15.31711117287920
STARLINK-2536           
1 48310U 21036AL  26197.44139469  .00000159  00000+0  16900-4 0  9997
2 48310  53.1583 212.3570 0001246  83.7980 276.3164 15.31705855287906
STARLINK-2534           
1 48311U 21036AM  26197.36112274 -.00001284  00000+0 -29616-4 0  9994
2 48311  53.1582 209.9698 0001229  76.6060 283.5078 15.31703472287930
